ONEWEB-0216             
1 48801U 21045AL  23361.76988829  .00000401  00000+0  10302-2 0  9997
2 48801  87.8998  78.8604 0001466 115.7082 244.4200 13.15547742125650
ONEWEB-0239             
1 48802U 21045AM  23361.77464258  .00000045  00000+0  85779-4 0  9990
2 48802  87.9008  78.8199 0002584 119.7299 240.4089 13.15548579125693
ONEWEB-0249             
1 48967U 21060A   23361.66419470  .00000161  00000+0  38847-3 0  9995
2 48967  87.9067  48.3998 0001780  99.2587 260.8745 13.16593359120853
ONEWEB-0250             
1 48968U 21060B   23361.66841945  .00000128  00000+0  30021-3 0  9991
2 48968  87.9066  48.3833 0002048 105.4125 254.7233 13.16595059120838
ONEWEB-0252             
1 48970U 21060D   23361.69586364  .00000039  00000+0  67258-4 0  9992
2 48970  87.9067  48.3864 0001666 103.3804 256.7513 13.16594171120907
ONEWEB-0253             
1 48971U 21060E   23361.68530453  .00000035  00000+0  57357-4 0  9995
2 48971  87.9058  48.4065 0001867 108.5298 251.6036 13.16593055120835
ONEWEB-0254             
1 48972U 21060F   23361.69375234  .00000095  00000+0  21539-3 0  9999
2 48972  87.9068  48.3770 0001900 108.3232 251.8106 13.16596251120834
ONEWEB-0255             
1 48973U 21060G   23361.65575970 -.00000005  00000+0 -47642-4 0  9992
2 48973  87.9064  48.4196 0002627  70.5565 289.5850 13.16592206120908
